[{"OBJECT_NAME":"STARLINK-30834","OBJECT_ID":"2023-166B","EPOCH":"2026-03-09T16:27:46.258848","MEAN_MOTION":15.30204498,"ECCENTRICITY":7.025e-5,"INCLINATION":53.1599,"RA_OF_ASC_NODE":219.7703,"ARG_OF_PERICENTER":115.4663,"MEAN_ANOMALY":244.641,"EPHEMERIS_TYPE":0,"CLASSIFICATION_TYPE":"U","NORAD_CAT_ID":58151,"ELEMENT_SET_NO":999,"REV_AT_EPOCH":13317,"BSTAR":0.00068653531,"MEAN_MOTION_DOT":0.00020032,"MEAN_MOTION_DDOT":0},{"OBJECT_NAME":"RESURS-P 5","OBJECT_ID":"2024-250A","EPOCH":"2026-03-09T23:31:56.908992","MEAN_MOTION":15.32839945,"ECCENTRICITY":0.00026027,"INCLINATION":97.276,"RA_OF_ASC_NODE":355.9792,"ARG_OF_PERICENTER":63.1234,"MEAN_ANOMALY":297.0274,"EPHEMERIS_TYPE":0,"CLASSIFICATION_TYPE":"U","NORAD_CAT_ID":62430,"ELEMENT_SET_NO":999,"REV_AT_EPOCH":6735,"BSTAR":0.00015600887,"MEAN_MOTION_DOT":4.871e-5,"MEAN_MOTION_DDOT":0}]
